{
  "type": "FeatureCollection",
  "features": [
    {
      "type": "Feature",
      "properties": {
        "norad_id": 66870,
        "name": "STARLINK-36114",
        "group": "last-30-days",
        "lat": 16.104058764388576,
        "lon": 73.07343738720348,
        "alt_km": 383.74112813240936,
        "timestamp": "2025-12-23T18:59:30.758724+00:00",
        "meta_object_name": "STARLINK-36114",
        "meta_object_id": "2025-281Y",
        "meta_epoch": "2025-12-23T06:00:00.999648",
        "meta_mean_motion": 15.62909147,
        "meta_eccentricity": 9.189e-05,
        "meta_inclination": 43.0002,
        "meta_ra_of_asc_node": 58.245,
        "meta_arg_of_pericenter": 269.6295,
        "meta_mean_anomaly": 307.3166,
        "meta_ephemeris_type": 0,
        "meta_classification_type": "U",
        "meta_norad_cat_id": 66870,
        "meta_element_set_no": 999,
        "meta_rev_at_epoch": 298,
        "meta_bstar": -0.023803943,
        "meta_mean_motion_dot": -0.01951575,
        "meta_mean_motion_ddot": 0,
        "tle_line1": "1 66870U 25281Y   25357.25001157 -.01951575  00000+0 -23804-1 0  9990",
        "tle_line2": "2 66870  43.0002  58.2450 0000918 269.6295 307.3166 15.62909147  2988"
      },
      "geometry": {
        "type": "Point",
        "coordinates": [
          73.07343738720348,
          16.104058764388576
        ]
      }
    },
    {
      "type": "Feature",
      "properties": {
        "norad_id": 66871,
        "name": "STARLINK-36095",
        "group": "last-30-days",
        "lat": 17.339602952271232,
        "lon": 74.59488825102227,
        "alt_km": 383.5493425976747,
        "timestamp": "2025-12-23T18:59:30.758733+00:00",
        "meta_object_name": "STARLINK-36095",
        "meta_object_id": "2025-281Z",
        "meta_epoch": "2025-12-23T06:00:00.999648",
        "meta_mean_motion": 15.62913438,
        "meta_eccentricity": 8.285e-05,
        "meta_inclination": 43.0001,
        "meta_ra_of_asc_node": 58.2391,
        "meta_arg_of_pericenter": 270.9455,
        "meta_mean_anomaly": 307.9155,
        "meta_ephemeris_type": 0,
        "meta_classification_type": "U",
        "meta_norad_cat_id": 66871,
        "meta_element_set_no": 999,
        "meta_rev_at_epoch": 311,
        "meta_bstar": -0.02389578,
        "meta_mean_motion_dot": -0.01958433,
        "meta_mean_motion_ddot": 0,
        "tle_line1": "1 66871U 25281Z   25357.25001157 -.01958433  00000+0 -23896-1 0  9992",
        "tle_line2": "2 66871  43.0001  58.2391 0000828 270.9455 307.9155 15.62913438  3113"
      },
      "geometry": {
        "type": "Point",
        "coordinates": [
          74.59488825102227,
          17.339602952271232
        ]
      }
    },
    {
      "type": "Feature",
      "properties": {
        "norad_id": 66872,
        "name": "STARLINK-36082",
        "group": "last-30-days",
        "lat": 18.568107773204037,
        "lon": 76.14489948539084,
        "alt_km": 383.32002527751047,
        "timestamp": "2025-12-23T18:59:30.758742+00:00",
        "meta_object_name": "STARLINK-36082",
        "meta_object_id": "2025-281AA",
        "meta_epoch": "2025-12-23T06:00:00.999648",
        "meta_mean_motion": 15.62904027,
        "meta_eccentricity": 8.932e-05,
        "meta_inclination": 43.0001,
        "meta_ra_of_asc_node": 58.2352,
        "meta_arg_of_pericenter": 274.5328,
        "meta_mean_anomaly": 306.2491,
        "meta_ephemeris_type": 0,
        "meta_classification_type": "U",
        "meta_norad_cat_id": 66872,
        "meta_element_set_no": 999,
        "meta_rev_at_epoch": 298,
        "meta_bstar": -0.023719362,
        "meta_mean_motion_dot": -0.01945102,
        "meta_mean_motion_ddot": 0,
        "tle_line1": "1 66872U 25281AA  25357.25001157 -.01945102  00000+0 -23719-1 0  9996",
        "tle_line2": "2 66872  43.0001  58.2352 0000893 274.5328 306.2491 15.62904027  2985"
      },
      "geometry": {
        "type": "Point",
        "coordinates": [
          76.14489948539084,
          18.568107773204037
        ]
      }
    },
    {
      "type": "Feature",
      "properties": {
        "norad_id": 66873,
        "name": "STARLINK-36128",
        "group": "last-30-days",
        "lat": 22.16026190717853,
        "lon": 80.91682284034644,
        "alt_km": 382.8305103993898,
        "timestamp": "2025-12-23T18:59:30.758752+00:00",
        "meta_object_name": "STARLINK-36128",
        "meta_object_id": "2025-281AB",
        "meta_epoch": "2025-12-23T06:00:00.999648",
        "meta_mean_motion": 15.629183,
        "meta_eccentricity": 7.549e-05,
        "meta_inclination": 42.9999,
        "meta_ra_of_asc_node": 58.2198,
        "meta_arg_of_pericenter": 274.9547,
        "meta_mean_anomaly": 311.5699,
        "meta_ephemeris_type": 0,
        "meta_classification_type": "U",
        "meta_norad_cat_id": 66873,
        "meta_element_set_no": 999,
        "meta_rev_at_epoch": 311,
        "meta_bstar": -0.023980056,
        "meta_mean_motion_dot": -0.01964791,
        "meta_mean_motion_ddot": 0,
        "tle_line1": "1 66873U 25281AB  25357.25001157 -.01964791  00000+0 -23980-1 0  9992",
        "tle_line2": "2 66873  42.9999  58.2198 0000754 274.9547 311.5699 15.62918300  3115"
      },
      "geometry": {
        "type": "Point",
        "coordinates": [
          80.91682284034644,
          22.16026190717853
        ]
      }
    },
    {
      "type": "Feature",
      "properties": {
        "norad_id": 66874,
        "name": "STARLINK-36129",
        "group": "last-30-days",
        "lat": 19.778009944500162,
        "lon": 77.70844756337007,
        "alt_km": 383.120285594533,
        "timestamp": "2025-12-23T18:59:30.758761+00:00",
        "meta_object_name": "STARLINK-36129",
        "meta_object_id": "2025-281AC",
        "meta_epoch": "2025-12-23T06:00:00.999648",
        "meta_mean_motion": 15.62915186,
        "meta_eccentricity": 7.572e-05,
        "meta_inclination": 43.0001,
        "meta_ra_of_asc_node": 58.2299,
        "meta_arg_of_pericenter": 276.3576,
        "meta_mean_anomaly": 306.3341,
        "meta_ephemeris_type": 0,
        "meta_classification_type": "U",
        "meta_norad_cat_id": 66874,
        "meta_element_set_no": 999,
        "meta_rev_at_epoch": 311,
        "meta_bstar": -0.023910278,
        "meta_mean_motion_dot": -0.0195955,
        "meta_mean_motion_ddot": 0,
        "tle_line1": "1 66874U 25281AC  25357.25001157 -.01959550  00000+0 -23910-1 0  9993",
        "tle_line2": "2 66874  43.0001  58.2299 0000757 276.3576 306.3341 15.62915186  3110"
      },
      "geometry": {
        "type": "Point",
        "coordinates": [
          77.70844756337007,
          19.778009944500162
        ]
      }
    },
    {
      "type": "Feature",
      "properties": {
        "norad_id": 66875,
        "name": "STARLINK-36053",
        "group": "last-30-days",
        "lat": 23.3296698360362,
        "lon": 82.5634329848461,
        "alt_km": 382.70188229401356,
        "timestamp": "2025-12-23T18:59:30.758770+00:00",
        "meta_object_name": "STARLINK-36053",
        "meta_object_id": "2025-281AD",
        "meta_epoch": "2025-12-23T06:00:00.999648",
        "meta_mean_motion": 15.62909133,
        "meta_eccentricity": 8.434e-05,
        "meta_inclination": 43.0001,
        "meta_ra_of_asc_node": 58.2142,
        "meta_arg_of_pericenter": 274.1307,
        "meta_mean_anomaly": 314.3183,
        "meta_ephemeris_type": 0,
        "meta_classification_type": "U",
        "meta_norad_cat_id": 66875,
        "meta_element_set_no": 999,
        "meta_rev_at_epoch": 311,
        "meta_bstar": -0.023858006,
        "meta_mean_motion_dot": -0.01955424,
        "meta_mean_motion_ddot": 0,
        "tle_line1": "1 66875U 25281AD  25357.25001157 -.01955424  00000+0 -23858-1 0  9991",
        "tle_line2": "2 66875  43.0001  58.2142 0000843 274.1307 314.3183 15.62909133  3110"
      },
      "geometry": {
        "type": "Point",
        "coordinates": [
          82.5634329848461,
          23.3296698360362
        ]
      }
    },
    {
      "type": "Feature",
      "properties": {
        "norad_id": 66876,
        "name": "STARLINK-35702",
        "group": "last-30-days",
        "lat": 20.978764318791715,
        "lon": 79.3026645762893,
        "alt_km": 382.98808357078724,
        "timestamp": "2025-12-23T18:59:30.758779+00:00",
        "meta_object_name": "STARLINK-35702",
        "meta_object_id": "2025-281AE",
        "meta_epoch": "2025-12-23T06:00:00.999648",
        "meta_mean_motion": 15.62908549,
        "meta_eccentricity": 8.718e-05,
        "meta_inclination": 43,
        "meta_ra_of_asc_node": 58.2249,
        "meta_arg_of_pericenter": 276.0592,
        "meta_mean_anomaly": 308.5552,
        "meta_ephemeris_type": 0,
        "meta_classification_type": "U",
        "meta_norad_cat_id": 66876,
        "meta_element_set_no": 999,
        "meta_rev_at_epoch": 311,
        "meta_bstar": -0.023824926,
        "meta_mean_motion_dot": -0.01953017,
        "meta_mean_motion_ddot": 0,
        "tle_line1": "1 66876U 25281AE  25357.25001157 -.01953017  00000+0 -23825-1 0  9992",
        "tle_line2": "2 66876  43.0000  58.2249 0000871 276.0592 308.5552 15.62908549  3111"
      },
      "geometry": {
        "type": "Point",
        "coordinates": [
          79.3026645762893,
          20.978764318791715
        ]
      }
    }
  ]
}